{"type": "FeatureCollection", "features": [ {"type": "Feature", "properties": {"norad_id": 35073, "name": "COSMOS 2251 DEB", "group": "cosmos-2251-debris", "lat": 24.213620512583752, "lon": 160.04914678684642, "alt_km": 563.8364661080341, "timestamp": "2025-12-04T10:51:50.501988+00:00", "meta": {"OBJECT_NAME": "COSMOS 2251 DEB", "OBJECT_ID": "1993-036AJC", "EPOCH": "2025-12-03T18:10:04.588320", "MEAN_MOTION": 14.99680723, "ECCENTRICITY": 0.00102038, "INCLINATION": 74.0008, "RA_OF_ASC_NODE": 348.8784, "ARG_OF_PERICENTER": 90.7661, "MEAN_ANOMALY": 269.4694, "EPHEMERIS_TYPE": 0, "CLASSIFICATION_TYPE": "U", "NORAD_CAT_ID": 35073, "ELEMENT_SET_NO": 999, "REV_AT_EPOCH": 67344, "BSTAR": 0.0034491623, "MEAN_MOTION_DOT": 0.00042819, "MEAN_MOTION_DDOT": 0}, "tle": {"line1": "1 35073U 93036AJC 25337.75699755  .00042819  00000+0  34492-2 0  9999", "line2": "2 35073  74.0008 348.8784 0010203  90.7661 269.4694 14.99680723673449"}}, "geometry": {"type": "Point", "coordinates": [160.04914678684642, 24.213620512583752]}}, {"type": "Feature", "properties": {"norad_id": 35284, "name": "COSMOS 2251 DEB", "group": "cosmos-2251-debris", "lat": -67.06953946706635, "lon": -122.85341735656787, "alt_km": 767.197785860003, "timestamp": "2025-12-04T10:51:50.501998+00:00", "meta": {"OBJECT_NAME": "COSMOS 2251 DEB", "OBJECT_ID": "1993-036AJN", "EPOCH": "2025-12-01T13:38:31.155360", "MEAN_MOTION": 14.382963, "ECCENTRICITY": 0.00163281, "INCLINATION": 74.049, "RA_OF_ASC_NODE": 284.9919, "ARG_OF_PERICENTER": 3.7139, "MEAN_ANOMALY": 114.9177, "EPHEMERIS_TYPE": 0, "CLASSIFICATION_TYPE": "U", "NORAD_CAT_ID": 35284, "ELEMENT_SET_NO": 999, "REV_AT_EPOCH": 65365, "BSTAR": 0.00020439824, "MEAN_MOTION_DOT": 5.97e-06, "MEAN_MOTION_DDOT": 0}, "tle": {"line1": "1 35284U 93036AJN 25335.56841615  .00000597  00000+0  20440-3 0  9990", "line2": "2 35284  74.0490 284.9919 0016328   3.7139 114.9177 14.38296300653654"}}, "geometry": {"type": "Point", "coordinates": [-122.85341735656787, -67.06953946706635]}}, {"type": "Feature", "properties": {"norad_id": 35287, "name": "COSMOS 2251 DEB", "group": "cosmos-2251-debris", "lat": 18.604278653930663, "lon": 105.83245914201426, "alt_km": 778.3411921577008, "timestamp": "2025-12-04T10:51:50.502008+00:00", "meta": {"OBJECT_NAME": "COSMOS 2251 DEB", "OBJECT_ID": "1993-036AJR", "EPOCH": "2025-12-03T08:05:46.925952", "MEAN_MOTION": 14.3636224, "ECCENTRICITY": 0.0017175, "INCLINATION": 74.0299, "RA_OF_ASC_NODE": 293.4128, "ARG_OF_PERICENTER": 32.768, "MEAN_ANOMALY": 122.7025, "EPHEMERIS_TYPE": 0, "CLASSIFICATION_TYPE": "U", "NORAD_CAT_ID": 35287, "ELEMENT_SET_NO": 999, "REV_AT_EPOCH": 86757, "BSTAR": 0.00022522, "MEAN_MOTION_DOT": 6.34e-06, "MEAN_MOTION_DDOT": 0}, "tle": {"line1": "1 35287U 93036AJR 25337.33734868  .00000634  00000+0  22522-3 0  9996", "line2": "2 35287  74.0299 293.4128 0017175  32.7680 122.7025 14.36362240867577"}}, "geometry": {"type": "Point", "coordinates": [105.83245914201426, 18.604278653930663]}}, {"type": "Feature", "properties": {"norad_id": 35288, "name": "COSMOS 2251 DEB", "group": "cosmos-2251-debris", "lat": 13.877556691783433, "lon": -152.86908050581548, "alt_km": 681.5914281870464, "timestamp": "2025-12-04T10:51:50.502019+00:00", "meta": {"OBJECT_NAME": "COSMOS 2251 DEB", "OBJECT_ID": "1993-036AJS", "EPOCH": "2025-12-03T20:59:56.516352", "MEAN_MOTION": 14.65299775, "ECCENTRICITY": 0.0039601, "INCLINATION": 73.9514, "RA_OF_ASC_NODE": 32.3261, "ARG_OF_PERICENTER": 266.9195, "MEAN_ANOMALY": 92.7441, "EPHEMERIS_TYPE": 0, "CLASSIFICATION_TYPE": "U", "NORAD_CAT_ID": 35288, "ELEMENT_SET_NO": 999, "REV_AT_EPOCH": 87748, "BSTAR": 0.002248, "MEAN_MOTION_DOT": 0.00012258, "MEAN_MOTION_DDOT": 0}, "tle": {"line1": "1 35288U 93036AJS 25337.87495968  .00012258  00000+0  22480-2 0  9998", "line2": "2 35288  73.9514  32.3261 0039601 266.9195  92.7441 14.65299775877487"}}, "geometry": {"type": "Point", "coordinates": [-152.86908050581548, 13.877556691783433]}}, {"type": "Feature", "properties": {"norad_id": 35290, "name": "COSMOS 2251 DEB", "group": "cosmos-2251-debris", "lat": 3.623943232826509, "lon": 76.83589186219767, "alt_km": 634.1816201225383, "timestamp": "2025-12-04T10:51:50.502029+00:00", "meta": {"OBJECT_NAME": "COSMOS 2251 DEB", "OBJECT_ID": "1993-036AJU", "EPOCH": "2025-12-01T06:35:33.142560", "MEAN_MOTION": 14.79807104, "ECCENTRICITY": 0.00037082, "INCLINATION": 74.0051, "RA_OF_ASC_NODE": 82.0624, "ARG_OF_PERICENTER": 206.8807, "MEAN_ANOMALY": 153.2178, "EPHEMERIS_TYPE": 0, "CLASSIFICATION_TYPE": "U", "NORAD_CAT_ID": 35290, "ELEMENT_SET_NO": 999, "REV_AT_EPOCH": 87788, "BSTAR": 0.002855926, "MEAN_MOTION_DOT": 0.00021548, "MEAN_MOTION_DDOT": 0}, "tle": {"line1": "1 35290U 93036AJU 25335.27468915  .00021548  00000+0  28559-2 0  9990", "line2": "2 35290  74.0051  82.0624 0003708 206.8807 153.2178 14.79807104877885"}}, "geometry": {"type": "Point", "coordinates": [76.83589186219767, 3.623943232826509]}}, {"type": "Feature", "properties": {"norad_id": 35432, "name": "COSMOS 2251 DEB", "group": "cosmos-2251-debris", "lat": 71.34581267761514, "lon": 91.05611641695467, "alt_km": 499.1062986048064, "timestamp": "2025-12-04T10:51:50.502039+00:00", "meta": {"OBJECT_NAME": "COSMOS 2251 DEB", "OBJECT_ID": "1993-036AKA", "EPOCH": "2025-12-02T12:41:27.608064", "MEAN_MOTION": 15.19283243, "ECCENTRICITY": 0.00119971, "INCLINATION": 74.023, "RA_OF_ASC_NODE": 37.0177, "ARG_OF_PERICENTER": 353.9321, "MEAN_ANOMALY": 6.1728, "EPHEMERIS_TYPE": 0, "CLASSIFICATION_TYPE": "U", "NORAD_CAT_ID": 35432, "ELEMENT_SET_NO": 999, "REV_AT_EPOCH": 87348, "BSTAR": 0.0074321278, "MEAN_MOTION_DOT": 0.00160594, "MEAN_MOTION_DDOT": 0}, "tle": {"line1": "1 35432U 93036AKA 25336.52879176  .00160594  00000+0  74321-2 0  9995", "line2": "2 35432  74.0230  37.0177 0011997 353.9321   6.1728 15.19283243873485"}}, "geometry": {"type": "Point", "coordinates": [91.05611641695467, 71.34581267761514]}}, {"type": "Feature", "properties": {"norad_id": 35433, "name": "COSMOS 2251 DEB", "group": "cosmos-2251-debris", "lat": -31.976932655637516, "lon": -16.659355467391215, "alt_km": 780.0870297861593, "timestamp": "2025-12-04T10:51:50.502050+00:00", "meta": {"OBJECT_NAME": "COSMOS 2251 DEB", "OBJECT_ID": "1993-036AKB", "EPOCH": "2025-11-29T08:56:22.068960", "MEAN_MOTION": 14.34715508, "ECCENTRICITY": 0.00253594, "INCLINATION": 74.0352, "RA_OF_ASC_NODE": 2.9393, "ARG_OF_PERICENTER": 62.2545, "MEAN_ANOMALY": 316.1289, "EPHEMERIS_TYPE": 0, "CLASSIFICATION_TYPE": "U", "NORAD_CAT_ID": 35433, "ELEMENT_SET_NO": 999, "REV_AT_EPOCH": 86389, "BSTAR": 0.00023326055, "MEAN_MOTION_DOT": 6.37e-06, "MEAN_MOTION_DDOT": 0}, "tle": {"line1": "1 35433U 93036AKB 25333.37247765  .00000637  00000+0  23326-3 0  9990", "line2": "2 35433  74.0352   2.9393 0025359  62.2545 316.1289 14.34715508863897"}}, "geometry": {"type": "Point", "coordinates": [-16.659355467391215, -31.976932655637516]}}, {"type": "Feature", "properties": {"norad_id": 35434, "name": "COSMOS 2251 DEB", "group": "cosmos-2251-debris", "lat": 27.003220268648025, "lon": 40.200288354603785, "alt_km": 858.8178992116336, "timestamp": "2025-12-04T10:51:50.502060+00:00", "meta": {"OBJECT_NAME": "COSMOS 2251 DEB", "OBJECT_ID": "1993-036AKC", "EPOCH": "2025-11-30T00:02:53.789280", "MEAN_MOTION": 14.25623606, "ECCENTRICITY": 0.00876191, "INCLINATION": 74.0414, "RA_OF_ASC_NODE": 236.6139, "ARG_OF_PERICENTER": 309.9857, "MEAN_ANOMALY": 49.362, "EPHEMERIS_TYPE": 0, "CLASSIFICATION_TYPE": "U", "NORAD_CAT_ID": 35434, "ELEMENT_SET_NO": 999, "REV_AT_EPOCH": 85936, "BSTAR": 0.00077223856, "MEAN_MOTION_DOT": 1.879e-05, "MEAN_MOTION_DDOT": 0}, "tle": {"line1": "1 35434U 93036AKC 25334.00201145  .00001879  00000+0  77224-3 0  9999", "line2": "2 35434  74.0414 236.6139 0087619 309.9857  49.3620 14.25623606859363"}}, "geometry": {"type": "Point", "coordinates": [40.200288354603785, 27.003220268648025]}}, {"type": "Feature", "properties": {"norad_id": 35435, "name": "COSMOS 2251 DEB", "group": "cosmos-2251-debris", "lat": -36.19605553424254, "lon": -47.51747501458984, "alt_km": 635.1156387017663, "timestamp": "2025-12-04T10:51:50.502071+00:00", "meta": {"OBJECT_NAME": "COSMOS 2251 DEB", "OBJECT_ID": "1993-036AKD", "EPOCH": "2025-12-04T04:10:55.485984", "MEAN_MOTION": 14.78004381, "ECCENTRICITY": 0.0009237, "INCLINATION": 74.0098, "RA_OF_ASC_NODE": 120.9168, "ARG_OF_PERICENTER": 212.0593, "MEAN_ANOMALY": 324.9507, "EPHEMERIS_TYPE": 0, "CLASSIFICATION_TYPE": "U", "NORAD_CAT_ID": 35435, "ELEMENT_SET_NO": 999, "REV_AT_EPOCH": 87412, "BSTAR": 0.0049222, "MEAN_MOTION_DOT": 0.00035708, "MEAN_MOTION_DDOT": 0}, "tle": {"line1": "1 35435U 93036AKD 25338.17425331  .00035708  00000+0  49222-2 0  9991", "line2": "2 35435  74.0098 120.9168 0009237 212.0593 324.9507 14.78004381874128"}}, "geometry": {"type": "Point", "coordinates": [-47.51747501458984, -36.19605553424254]}}, {"type": "Feature", "properties": {"norad_id": 35439, "name": "COSMOS 2251 DEB", "group": "cosmos-2251-debris", "lat": 6.657626697715088, "lon": -32.978751153017086, "alt_km": 1067.3849077152317, "timestamp": "2025-12-04T10:51:50.502081+00:00", "meta": {"OBJECT_NAME": "COSMOS 2251 DEB", "OBJECT_ID": "1993-036AKH", "EPOCH": "2025-12-03T18:34:55.041888", "MEAN_MOTION": 13.92746619, "ECCENTRICITY": 0.02415919, "INCLINATION": 74.0184, "RA_OF_ASC_NODE": 150.1, "ARG_OF_PERICENTER": 321.3614, "MEAN_ANOMALY": 52.9167, "EPHEMERIS_TYPE": 0, "CLASSIFICATION_TYPE": "U", "NORAD_CAT_ID": 35439, "ELEMENT_SET_NO": 999, "REV_AT_EPOCH": 83836, "BSTAR": 0.0019584258, "MEAN_MOTION_DOT": 3.195e-05, "MEAN_MOTION_DDOT": 0}, "tle": {"line1": "1 35439U 93036AKH 25337.77424817  .00003195  00000+0  19584-2 0  9991", "line2": "2 35439  74.0184 150.1000 0241591 321.3614  52.9167 13.92746619838365"}}, "geometry": {"type": "Point", "coordinates": [-32.978751153017086, 6.657626697715088]}}]}